[{"OBJECT_NAME":"LILIUM-2","OBJECT_ID":"2025-276P","EPOCH":"2026-03-09T17:57:43.169184","MEAN_MOTION":15.17362397,"ECCENTRICITY":0.0005992,"INCLINATION":97.4225,"RA_OF_ASC_NODE":143.7942,"ARG_OF_PERICENTER":8.9383,"MEAN_ANOMALY":351.1956,"EPHEMERIS_TYPE":0,"CLASSIFICATION_TYPE":"U","NORAD_CAT_ID":66679,"ELEMENT_SET_NO":999,"REV_AT_EPOCH":1531,"BSTAR":0.00024211836,"MEAN_MOTION_DOT":4.769e-5,"MEAN_MOTION_DDOT":0},{"OBJECT_NAME":"OKEAN-2","OBJECT_ID":"1990-018A","EPOCH":"2026-03-09T23:36:10.183680","MEAN_MOTION":15.15649196,"ECCENTRICITY":0.00049727,"INCLINATION":82.5017,"RA_OF_ASC_NODE":331.5686,"ARG_OF_PERICENTER":303.4328,"MEAN_ANOMALY":67.9927,"EPHEMERIS_TYPE":0,"CLASSIFICATION_TYPE":"U","NORAD_CAT_ID":20510,"ELEMENT_SET_NO":999,"REV_AT_EPOCH":93903,"BSTAR":0.00028442133,"MEAN_MOTION_DOT":5.437e-5,"MEAN_MOTION_DDOT":0}]
